OBJECT_NAME,OBJECT_ID,EPOCH,MEAN_MOTION,ECCENTRICITY,INCLINATION,RA_OF_ASC_NODE,ARG_OF_PERICENTER,MEAN_ANOMALY,EPHEMERIS_TYPE,CLASSIFICATION_TYPE,NORAD_CAT_ID,ELEMENT_SET_NO,REV_AT_EPOCH,BSTAR,MEAN_MOTION_DOT,MEAN_MOTION_DDOT
ONEWEB-0572,2023-004M,2026-06-19T06:22:50.973600,13.17648837,.00019914,87.9130,5.4520,94.3435,265.7924,0,U,55151,999,16775,-.13781629E-3,-.41E-6,0
ONEWEB-0573,2023-004N,2026-06-19T03:55:38.291232,13.18686692,.00023239,87.9163,335.0757,114.8986,245.2388,0,U,55152,999,16995,.10611313E-3,.55E-6,0
ONEWEB-0588,2023-004P,2026-06-19T03:45:55.795392,13.18684771,.00023664,87.9160,335.0776,95.7885,264.3517,0,U,55153,999,16995,-.78246534E-4,-.18E-6,0
ONEWEB-0598,2023-004Q,2026-06-19T01:37:26.492736,13.11415058,.00017626,87.8881,20.6943,109.7617,250.3701,0,U,55154,999,16614,-.13360627E-2,-.461E-5,0
ONEWEB-0599,2023-004R,2026-06-19T01:48:16.051392,13.17649008,.00016427,87.9132,5.4883,91.4350,268.6969,0,U,55155,999,16773,.24519E-5,.14E-6,0
ONEWEB-0614,2023-004S,2026-06-19T06:59:43.175616,13.11414436,.00019971,87.8881,20.6585,81.9807,278.1547,0,U,55156,999,16611,-.71493874E-3,-.241E-5,0
ONEWEB-0616,2023-004T,2026-06-19T00:59:40.434144,13.17649210,.00009445,87.9132,5.4987,82.8732,277.2507,0,U,55157,999,16794,-.37226167E-4,-.2E-7,0
ONEWEB-0617,2023-004U,2026-06-19T06:42:39.098880,13.11415014,.00022416,87.8890,20.6519,84.6189,275.5195,0,U,55158,999,16613,.79499302E-3,.294E-5,0
ONEWEB-0618,2023-004V,2026-06-19T07:22:20.724384,15.13148027,.00095162,86.9091,176.7742,290.0322,69.9893,0,U,55159,999,18258,.17161123E-3,.3076E-4,0
ONEWEB-0619,2023-004W,2026-06-19T01:45:50.712768,13.17649595,.00019058,87.9142,5.4732,76.7401,283.3943,0,U,55160,999,16784,-.53767432E-4,-.8E-7,0
ONEWEB-0620,2023-004X,2026-06-19T06:35:18.784608,13.11414098,.00019241,87.8882,20.6616,93.9735,266.1613,0,U,55161,999,16610,.10752E-2,.394E-5,0
ONEWEB-0621,2023-004Y,2026-06-19T01:44:45.656160,13.11415793,.00020046,87.8892,20.6910,81.5530,278.5825,0,U,55162,999,16605,-.14886722E-2,-.515E-5,0
ONEWEB-0622,2023-004Z,2026-06-19T01:52:05.398464,13.11416881,.0002544,87.8894,20.6921,86.7276,273.4143,0,U,55163,999,16604,-.15147313E-2,-.524E-5,0
ONEWEB-0623,2023-004AA,2026-06-19T01:38:32.439264,13.17650297,.00025008,87.9130,5.5043,76.6439,283.4971,0,U,55164,999,16783,-.9060808E-4,-.22E-6,0
ONEWEB-0624,2023-004AB,2026-06-19T06:03:39.324672,13.12930279,.00018452,87.8945,350.1745,89.5024,270.6316,0,U,55165,999,16834,.12112715E-2,.452E-5,0
ONEWEB-0625,2023-004AC,2026-06-19T06:52:01.190496,13.17649016,.00017157,87.9131,5.4567,86.7905,273.3423,0,U,55166,999,16785,.18500465E-4,.2E-6,0
ONEWEB-0626,2023-004AD,2026-06-19T06:37:27.371136,13.17653543,.00011688,87.9059,5.4585,130.4157,229.7077,0,U,55167,999,16785,-.33407706E-2,-.1284E-4,0
ONEWEB-0627,2023-004AE,2026-06-19T06:20:25.302336,13.17648005,.00022711,87.9131,5.4613,79.7179,280.4208,0,U,55168,999,16785,-.15530777E-3,-.47E-6,0
ONEWEB-0628,2023-004AF,2026-06-19T05:37:59.001888,13.12444207,.00022929,87.8948,350.2456,77.1527,282.9857,0,U,55169,999,16830,-.11050774E-2,-.385E-5,0
ONEWEB-0629,2023-004AG,2026-06-19T05:45:10.735776,13.17648342,.00018405,87.9130,5.4620,78.6536,281.4802,0,U,55170,999,16785,.11585754E-3,.58E-6,0
ONEWEB-0631,2023-004AH,2026-06-18T22:08:25.790208,13.18685050,.0002276,87.9170,335.0901,101.5094,258.6293,0,U,55171,999,16990,-.10438E-3,-.28E-6,0
ONEWEB-0709,2023-004AJ,2026-06-19T00:51:04.748832,13.11415532,.00018778,87.8884,20.7113,114.2014,245.9311,0,U,55172,999,16611,.12110142E-2,.442E-5,0
ONEWEB-0710,2023-004AK,2026-06-19T06:05:50.291520,13.17649973,.00020101,87.9131,5.4544,86.8239,273.3123,0,U,55173,999,16785,-.19156106E-4,.5E-7,0
ONEWEB-0711,2023-004AL,2026-06-19T01:59:25.107072,13.11419176,.00024953,87.8884,20.6895,79.8733,280.2676,0,U,55174,999,16608,-.14871331E-2,-.514E-5,0
ONEWEB-0713,2023-004AM,2026-06-19T02:26:17.961792,13.11417907,.00022059,87.8888,20.6872,82.6668,277.4710,0,U,55175,999,16607,.98558573E-3,.362E-5,0
ONEWEB-0715,2023-004AN,2026-06-19T02:18:57.164544,13.11420471,.00021258,87.8885,20.6890,104.4374,255.6990,0,U,55176,999,16611,.60221281E-3,.226E-5,0
ONEWEB-0716,2023-004AP,2026-06-19T05:56:07.066464,13.17650244,.00016368,87.9131,5.4585,86.9927,273.1392,0,U,55177,999,16785,-.11115354E-3,-.3E-6,0
ONEWEB-0717,2023-004AQ,2026-06-19T01:53:07.809504,13.17649093,.00024432,87.9143,5.4798,88.7468,271.3944,0,U,55178,999,16788,-.4924107E-4,-.6E-7,0
ONEWEB-0719,2023-004AR,2026-06-19T05:46:24.651840,13.17649860,.00017343,87.9140,5.4280,82.9767,277.1561,0,U,55179,999,16785,.11277953E-4,.17E-6,0
ONEWEB-0530,2023-029A,2026-06-19T06:53:06.684288,13.20771607,.00022674,87.9187,274.0504,90.6251,269.5142,0,U,55796,999,16142,-.41830469E-4,-.4E-7,0
