ONEWEB-0572             
1 55151U 23004M   26170.26586775 -.00000041  00000+0 -13782-3 0  9998
2 55151  87.9130   5.4520 0001991  94.3435 265.7924 13.17648837167750
ONEWEB-0573             
1 55152U 23004N   26170.16363763  .00000055  00000+0  10611-3 0  9999
2 55152  87.9163 335.0757 0002323 114.8986 245.2388 13.18686692169953
ONEWEB-0588             
1 55153U 23004P   26170.15689578 -.00000018  00000+0 -78247-4 0  9995
2 55153  87.9160 335.0776 0002366  95.7885 264.3517 13.18684771169956
ONEWEB-0598             
1 55154U 23004Q   26170.06766774 -.00000461  00000+0 -13361-2 0  9996
2 55154  87.8881  20.6943 0001762 109.7617 250.3701 13.11415058166148
ONEWEB-0599             
1 55155U 23004R   26170.07518578  .00000014  00000+0  24519-5 0  9997
2 55155  87.9132   5.4883 0001642  91.4350 268.6969 13.17649008167735
ONEWEB-0614             
1 55156U 23004S   26170.29147194 -.00000241  00000+0 -71494-3 0  9990
2 55156  87.8881  20.6585 0001997  81.9807 278.1547 13.11414436166116
ONEWEB-0616             
1 55157U 23004T   26170.04144021 -.00000002  00000+0 -37226-4 0  9991
2 55157  87.9132   5.4987 0000944  82.8732 277.2507 13.17649210167946
ONEWEB-0617             
1 55158U 23004U   26170.27961920  .00000294  00000+0  79499-3 0  9990
2 55158  87.8890  20.6519 0002241  84.6189 275.5195 13.11415014166136
ONEWEB-0618             
1 55159U 23004V   26170.30718431  .00003076  00000+0  17161-3 0  9991
2 55159  86.9091 176.7742 0009516 290.0322  69.9893 15.13148027182583
ONEWEB-0619             
1 55160U 23004W   26170.07350362 -.00000008  00000+0 -53767-4 0  9999
2 55160  87.9142   5.4732 0001905  76.7401 283.3943 13.17649595167849
ONEWEB-0620             
1 55161U 23004X   26170.27452297  .00000394  00000+0  10752-2 0  9993
2 55161  87.8882  20.6616 0001924  93.9735 266.1613 13.11414098166105
ONEWEB-0621             
1 55162U 23004Y   26170.07275065 -.00000515  00000+0 -14887-2 0  9998
2 55162  87.8892  20.6910 0002004  81.5530 278.5825 13.11415793166059
ONEWEB-0622             
1 55163U 23004Z   26170.07784026 -.00000524  00000+0 -15147-2 0  9991
2 55163  87.8894  20.6921 0002544  86.7276 273.4143 13.11416881166042
ONEWEB-0623             
1 55164U 23004AA  26170.06843101 -.00000022  00000+0 -90608-4 0  9991
2 55164  87.9130   5.5043 0002500  76.6439 283.4971 13.17650297167830
ONEWEB-0624             
1 55165U 23004AB  26170.25253848  .00000452  00000+0  12113-2 0  9994
2 55165  87.8945 350.1745 0001845  89.5024 270.6316 13.12930279168340
ONEWEB-0625             
1 55166U 23004AC  26170.28612489  .00000020  00000+0  18500-4 0  9997
2 55166  87.9131   5.4567 0001715  86.7905 273.3423 13.17649016167859
ONEWEB-0626             
1 55167U 23004AD  26170.27601124 -.00001284  00000+0 -33408-2 0  9998
2 55167  87.9059   5.4585 0001168 130.4157 229.7077 13.17653543167857
ONEWEB-0627             
1 55168U 23004AE  26170.26418174 -.00000047  00000+0 -15531-3 0  9993
2 55168  87.9131   5.4613 0002271  79.7179 280.4208 13.17648005167853
ONEWEB-0628             
1 55169U 23004AF  26170.23471067 -.00000385  00000+0 -11051-2 0  9998
2 55169  87.8948 350.2456 0002292  77.1527 282.9857 13.12444207168308
ONEWEB-0629             
1 55170U 23004AG  26170.23970759  .00000058  00000+0  11586-3 0  9991
2 55170  87.9130   5.4620 0001840  78.6536 281.4802 13.17648342167854
ONEWEB-0631             
1 55171U 23004AH  26169.92252072 -.00000028  00000+0 -10438-3 0  9991
2 55171  87.9170 335.0901 0002276 101.5094 258.6293 13.18685050169908
ONEWEB-0709             
1 55172U 23004AJ  26170.03547163  .00000442  00000+0  12110-2 0  9990
2 55172  87.8884  20.7113 0001877 114.2014 245.9311 13.11415532166111
ONEWEB-0710             
1 55173U 23004AK  26170.25405430  .00000005  00000+0 -19156-4 0  9990
2 55173  87.9131   5.4544 0002010  86.8239 273.3123 13.17649973167851
ONEWEB-0711             
1 55174U 23004AL  26170.08292948 -.00000514  00000+0 -14871-2 0  9993
2 55174  87.8884  20.6895 0002495  79.8733 280.2676 13.11419176166080
ONEWEB-0713             
1 55175U 23004AM  26170.10159678  .00000362  00000+0  98559-3 0  9994
2 55175  87.8888  20.6872 0002205  82.6668 277.4710 13.11417907166074
ONEWEB-0715             
1 55176U 23004AN  26170.09649496  .00000226  00000+0  60221-3 0  9999
2 55176  87.8885  20.6890 0002125 104.4374 255.6990 13.11420471166113
ONEWEB-0716             
1 55177U 23004AP  26170.24730401 -.00000030  00000+0 -11115-3 0  9997
2 55177  87.9131   5.4585 0001636  86.9927 273.1392 13.17650244167857
ONEWEB-0717             
1 55178U 23004AQ  26170.07856261 -.00000006  00000+0 -49241-4 0  9997
2 55178  87.9143   5.4798 0002443  88.7468 271.3944 13.17649093167880
ONEWEB-0719             
1 55179U 23004AR  26170.24056310  .00000017  00000+0  11278-4 0  9993
2 55179  87.9140   5.4280 0001734  82.9767 277.1561 13.17649860167852
ONEWEB-0530             
1 55796U 23029A   26170.28688292 -.00000004  00000+0 -41830-4 0  9994
2 55796  87.9187 274.0504 0002267  90.6251 269.5142 13.20771607161423
